CCSDS_OMM_VERS = 2.0
CREATION_DATE  = 
ORIGINATOR     = 

OBJECT_NAME    = AQUA
OBJECT_ID      = 2002-022A
CENTER_NAME    = EARTH
REF_FRAME      = TEME
TIME_SYSTEM    = UTC
MEAN_ELEMENT_THEORY = SGP/SGP4

EPOCH          = 2026-03-11T20:56:46.946112
MEAN_MOTION    = 14.61982658
ECCENTRICITY   = .000056
INCLINATION    = 98.4177
RA_OF_ASC_NODE = 38.2774
ARG_OF_PERICENTER = 88.8295
MEAN_ANOMALY   = 322.2995

EPHEMERIS_TYPE = 0
CLASSIFICATION_TYPE = U
NORAD_CAT_ID   = 27424
ELEMENT_SET_NO = 999
REV_AT_EPOCH   = 26905
BSTAR          = .24842E-3
MEAN_MOTION_DOT = .1196E-4
MEAN_MOTION_DDOT = 0

CCSDS_OMM_VERS = 2.0
CREATION_DATE  = 
ORIGINATOR     = 

OBJECT_NAME    = CZ-4B R/B
OBJECT_ID      = 2002-024C
CENTER_NAME    = EARTH
REF_FRAME      = TEME
TIME_SYSTEM    = UTC
MEAN_ELEMENT_THEORY = SGP/SGP4

EPOCH          = 2026-03-11T18:43:16.180032
MEAN_MOTION    = 14.14547983
ECCENTRICITY   = .0050384
INCLINATION    = 98.8835
RA_OF_ASC_NODE = 124.1762
ARG_OF_PERICENTER = 18.2883
MEAN_ANOMALY   = 92.6866

EPHEMERIS_TYPE = 0
CLASSIFICATION_TYPE = U
NORAD_CAT_ID   = 27432
ELEMENT_SET_NO = 999
REV_AT_EPOCH   = 22953
BSTAR          = .47285E-4
MEAN_MOTION_DOT = .47E-6
MEAN_MOTION_DDOT = 0

CCSDS_OMM_VERS = 2.0
CREATION_DATE  = 
ORIGINATOR     = 

OBJECT_NAME    = MIDORI II (ADEOS-II)
OBJECT_ID      = 2002-056A
CENTER_NAME    = EARTH
REF_FRAME      = TEME
TIME_SYSTEM    = UTC
MEAN_ELEMENT_THEORY = SGP/SGP4

EPOCH          = 2026-03-11T20:00:44.022240
MEAN_MOTION    = 14.29286960
ECCENTRICITY   = .0001513
INCLINATION    = 98.7769
RA_OF_ASC_NODE = 29.3261
ARG_OF_PERICENTER = 40.5495
MEAN_ANOMALY   = 319.5799

EPHEMERIS_TYPE = 0
CLASSIFICATION_TYPE = U
NORAD_CAT_ID   = 27597
ELEMENT_SET_NO = 999
REV_AT_EPOCH   = 21060
BSTAR          = .16095E-3
MEAN_MOTION_DOT = .364E-5
MEAN_MOTION_DDOT = 0

CCSDS_OMM_VERS = 2.0
CREATION_DATE  = 
ORIGINATOR     = 

OBJECT_NAME    = H-2A R/B
OBJECT_ID      = 2002-056E
CENTER_NAME    = EARTH
REF_FRAME      = TEME
TIME_SYSTEM    = UTC
MEAN_ELEMENT_THEORY = SGP/SGP4

EPOCH          = 2026-03-11T20:52:15.156768
MEAN_MOTION    = 14.33762249
ECCENTRICITY   = .0070632
INCLINATION    = 98.3205
RA_OF_ASC_NODE = 31.1522
ARG_OF_PERICENTER = 154.2148
MEAN_ANOMALY   = 261.2108

EPHEMERIS_TYPE = 0
CLASSIFICATION_TYPE = U
NORAD_CAT_ID   = 27601
ELEMENT_SET_NO = 999
REV_AT_EPOCH   = 21442
BSTAR          = .12062E-3
MEAN_MOTION_DOT = .303E-5
MEAN_MOTION_DDOT = 0

CCSDS_OMM_VERS = 2.0
CREATION_DATE  = 
ORIGINATOR     = 

OBJECT_NAME    = CZ-4B R/B
OBJECT_ID      = 2003-049C
CENTER_NAME    = EARTH
REF_FRAME      = TEME
TIME_SYSTEM    = UTC
MEAN_ELEMENT_THEORY = SGP/SGP4

EPOCH          = 2026-03-11T20:37:11.595936
MEAN_MOTION    = 14.55022301
ECCENTRICITY   = .0047333
INCLINATION    = 98.6879
RA_OF_ASC_NODE = 65.8490
ARG_OF_PERICENTER = 224.1160
MEAN_ANOMALY   = 135.6256

EPHEMERIS_TYPE = 0
CLASSIFICATION_TYPE = U
NORAD_CAT_ID   = 28059
ELEMENT_SET_NO = 999
REV_AT_EPOCH   = 18691
BSTAR          = .11009E-3
MEAN_MOTION_DOT = .429E-5
MEAN_MOTION_DDOT = 0

CCSDS_OMM_VERS = 2.0
CREATION_DATE  = 
ORIGINATOR     = 

OBJECT_NAME    = CZ-2C R/B
OBJECT_ID      = 2004-012C
CENTER_NAME    = EARTH
REF_FRAME      = TEME
TIME_SYSTEM    = UTC
MEAN_ELEMENT_THEORY = SGP/SGP4

EPOCH          = 2026-03-11T17:16:17.755680
MEAN_MOTION    = 15.64774872
ECCENTRICITY   = .0012932
INCLINATION    = 97.7222
RA_OF_ASC_NODE = 136.2046
ARG_OF_PERICENTER = 301.4679
MEAN_ANOMALY   = 58.5315

EPHEMERIS_TYPE = 0
CLASSIFICATION_TYPE = U
NORAD_CAT_ID   = 28222
ELEMENT_SET_NO = 999
REV_AT_EPOCH   = 20459
BSTAR          = .66079E-3
MEAN_MOTION_DOT = .64754E-3
MEAN_MOTION_DDOT = 0

CCSDS_OMM_VERS = 2.0
CREATION_DATE  = 
ORIGINATOR     = 

OBJECT_NAME    = SL-16 R/B
OBJECT_ID      = 2004-021B
CENTER_NAME    = EARTH
REF_FRAME      = TEME
TIME_SYSTEM    = UTC
MEAN_ELEMENT_THEORY = SGP/SGP4

EPOCH          = 2026-03-11T20:40:10.851744
MEAN_MOTION    = 14.14597110
ECCENTRICITY   = .0004176
INCLINATION    = 70.9996
RA_OF_ASC_NODE = 227.9350
ARG_OF_PERICENTER = 6.1397
MEAN_ANOMALY   = 353.9776

EPHEMERIS_TYPE = 0
CLASSIFICATION_TYPE = U
NORAD_CAT_ID   = 28353
ELEMENT_SET_NO = 999
REV_AT_EPOCH   = 12314
BSTAR          = -.1132E-3
MEAN_MOTION_DOT = -.265E-5
MEAN_MOTION_DDOT = 0

CCSDS_OMM_VERS = 2.0
CREATION_DATE  = 
ORIGINATOR     = 

OBJECT_NAME    = CZ-4B R/B
OBJECT_ID      = 2004-035C
CENTER_NAME    = EARTH
REF_FRAME      = TEME
TIME_SYSTEM    = UTC
MEAN_ELEMENT_THEORY = SGP/SGP4

EPOCH          = 2026-03-11T14:39:22.790880
MEAN_MOTION    = 15.29101543
ECCENTRICITY   = .0030743
INCLINATION    = 97.3502
RA_OF_ASC_NODE = 104.8303
ARG_OF_PERICENTER = 324.4114
MEAN_ANOMALY   = 35.5075

EPHEMERIS_TYPE = 0
CLASSIFICATION_TYPE = U
NORAD_CAT_ID   = 28415
ELEMENT_SET_NO = 999
REV_AT_EPOCH   = 18020
BSTAR          = .30919E-3
MEAN_MOTION_DOT = .8783E-4
MEAN_MOTION_DDOT = 0

CCSDS_OMM_VERS = 2.0
CREATION_DATE  = 
ORIGINATOR     = 

OBJECT_NAME    = CZ-2C R/B
OBJECT_ID      = 2004-046B
CENTER_NAME    = EARTH
REF_FRAME      = TEME
TIME_SYSTEM    = UTC
MEAN_ELEMENT_THEORY = SGP/SGP4

EPOCH          = 2026-03-11T17:30:18.008640
MEAN_MOTION    = 14.26992768
ECCENTRICITY   = .0139979
INCLINATION    = 98.1980
RA_OF_ASC_NODE = 345.5864
ARG_OF_PERICENTER = 148.4396
MEAN_ANOMALY   = 212.5277

EPHEMERIS_TYPE = 0
CLASSIFICATION_TYPE = U
NORAD_CAT_ID   = 28480
ELEMENT_SET_NO = 999
REV_AT_EPOCH   = 10879
BSTAR          = .6246E-4
MEAN_MOTION_DOT = .128E-5
MEAN_MOTION_DDOT = 0

CCSDS_OMM_VERS = 2.0
CREATION_DATE  = 
ORIGINATOR     = 

OBJECT_NAME    = ARIANE 5 R/B
OBJECT_ID      = 2004-049H
CENTER_NAME    = EARTH
REF_FRAME      = TEME
TIME_SYSTEM    = UTC
MEAN_ELEMENT_THEORY = SGP/SGP4

EPOCH          = 2026-03-11T17:18:20.817792
MEAN_MOTION    = 14.85270084
ECCENTRICITY   = .0083807
INCLINATION    = 98.2630
RA_OF_ASC_NODE = 239.2540
ARG_OF_PERICENTER = 345.3168
MEAN_ANOMALY   = 14.5613

EPHEMERIS_TYPE = 0
CLASSIFICATION_TYPE = U
NORAD_CAT_ID   = 28499
ELEMENT_SET_NO = 999
REV_AT_EPOCH   = 14609
BSTAR          = .1092E-3
MEAN_MOTION_DOT = .932E-5
MEAN_MOTION_DDOT = 0

CCSDS_OMM_VERS = 2.0
CREATION_DATE  = 
ORIGINATOR     = 

OBJECT_NAME    = CZ-2D R/B
OBJECT_ID      = 2005-024B
CENTER_NAME    = EARTH
REF_FRAME      = TEME
TIME_SYSTEM    = UTC
MEAN_ELEMENT_THEORY = SGP/SGP4

EPOCH          = 2026-03-11T18:16:50.624256
MEAN_MOTION    = 15.60354217
ECCENTRICITY   = .0005547
INCLINATION    = 97.3602
RA_OF_ASC_NODE = 85.9840
ARG_OF_PERICENTER = 41.1425
MEAN_ANOMALY   = 319.0250

EPHEMERIS_TYPE = 0
CLASSIFICATION_TYPE = U
NORAD_CAT_ID   = 28738
ELEMENT_SET_NO = 999
REV_AT_EPOCH   = 14010
BSTAR          = .61032E-3
MEAN_MOTION_DOT = .50111E-3
MEAN_MOTION_DDOT = 0

CCSDS_OMM_VERS = 2.0
CREATION_DATE  = 
ORIGINATOR     = 

OBJECT_NAME    = ALOS (DAICHI)
OBJECT_ID      = 2006-002A
CENTER_NAME    = EARTH
REF_FRAME      = TEME
TIME_SYSTEM    = UTC
MEAN_ELEMENT_THEORY = SGP/SGP4

EPOCH          = 2026-03-11T21:15:17.330400
MEAN_MOTION    = 14.69818058
ECCENTRICITY   = .0000853
INCLINATION    = 98.1220
RA_OF_ASC_NODE = 26.8300
ARG_OF_PERICENTER = 60.0305
MEAN_ANOMALY   = 300.0985

EPHEMERIS_TYPE = 0
CLASSIFICATION_TYPE = U
NORAD_CAT_ID   = 28931
ELEMENT_SET_NO = 999
REV_AT_EPOCH   = 7380
BSTAR          = .28023E-3
MEAN_MOTION_DOT = .1624E-4
MEAN_MOTION_DDOT = 0

